{
  "type": "FeatureCollection",
  "features": [
    {
      "type": "Feature",
      "properties": {
        "norad_id": 38709,
        "name": "EXACTVIEW-1 (ADS-1B)",
        "group": "resource",
        "lat": -25.92756377058924,
        "lon": -92.88247903542167,
        "alt_km": 821.6746721107957,
        "timestamp": "2025-12-09T04:51:47.164414+00:00",
        "meta_object_name": "EXACTVIEW-1 (ADS-1B)",
        "meta_object_id": "2012-039C",
        "meta_epoch": "2025-12-08T19:28:19.351776",
        "meta_mean_motion": 14.2490582,
        "meta_eccentricity": 0.001088,
        "meta_inclination": 98.9636,
        "meta_ra_of_asc_node": 91.119,
        "meta_arg_of_pericenter": 5.6086,
        "meta_mean_anomaly": 354.5212,
        "meta_ephemeris_type": 0,
        "meta_classification_type": "U",
        "meta_norad_cat_id": 38709,
        "meta_element_set_no": 999,
        "meta_rev_at_epoch": 69559,
        "meta_bstar": 0.00017296,
        "meta_mean_motion_dot": 3.58e-06,
        "meta_mean_motion_ddot": 0,
        "tle_line1": "1 38709U 12039C   25342.81133509  .00000358  00000+0  17296-3 0  9991",
        "tle_line2": "2 38709  98.9636  91.1190 0010880   5.6086 354.5212 14.24905820695594"
      },
      "geometry": {
        "type": "Point",
        "coordinates": [
          -92.88247903542167,
          -25.92756377058924
        ]
      }
    },
    {
      "type": "Feature",
      "properties": {
        "norad_id": 38755,
        "name": "SPOT 6",
        "group": "resource",
        "lat": 13.416989057270065,
        "lon": -129.9869362815697,
        "alt_km": 698.5402361174183,
        "timestamp": "2025-12-09T04:51:47.164424+00:00",
        "meta_object_name": "SPOT 6",
        "meta_object_id": "2012-047A",
        "meta_epoch": "2025-12-08T19:52:16.031712",
        "meta_mean_motion": 14.58597131,
        "meta_eccentricity": 0.0001093,
        "meta_inclination": 98.1576,
        "meta_ra_of_asc_node": 47.6844,
        "meta_arg_of_pericenter": 96.1131,
        "meta_mean_anomaly": 264.0193,
        "meta_ephemeris_type": 0,
        "meta_classification_type": "U",
        "meta_norad_cat_id": 38755,
        "meta_element_set_no": 999,
        "meta_rev_at_epoch": 70530,
        "meta_bstar": 0.00012445,
        "meta_mean_motion_dot": 5.34e-06,
        "meta_mean_motion_ddot": 0,
        "tle_line1": "1 38755U 12047A   25342.82796333  .00000534  00000+0  12445-3 0  9999",
        "tle_line2": "2 38755  98.1576  47.6844 0001093  96.1131 264.0193 14.58597131705307"
      },
      "geometry": {
        "type": "Point",
        "coordinates": [
          -129.9869362815697,
          13.416989057270065
        ]
      }
    },
    {
      "type": "Feature",
      "properties": {
        "norad_id": 39019,
        "name": "PLEIADES 1B",
        "group": "resource",
        "lat": 64.21337474325452,
        "lon": 38.589581749479294,
        "alt_km": 690.7365768772761,
        "timestamp": "2025-12-09T04:51:47.164434+00:00",
        "meta_object_name": "PLEIADES 1B",
        "meta_object_id": "2012-068A",
        "meta_epoch": "2025-12-08T20:19:54.682752",
        "meta_mean_motion": 14.58546648,
        "meta_eccentricity": 0.0001254,
        "meta_inclination": 98.1798,
        "meta_ra_of_asc_node": 55.5604,
        "meta_arg_of_pericenter": 80.67,
        "meta_mean_anomaly": 279.4641,
        "meta_ephemeris_type": 0,
        "meta_classification_type": "U",
        "meta_norad_cat_id": 39019,
        "meta_element_set_no": 999,
        "meta_rev_at_epoch": 69310,
        "meta_bstar": 0.00012821,
        "meta_mean_motion_dot": 5.5e-06,
        "meta_mean_motion_ddot": 0,
        "tle_line1": "1 39019U 12068A   25342.84716068  .00000550  00000+0  12821-3 0  9991",
        "tle_line2": "2 39019  98.1798  55.5604 0001254  80.6700 279.4641 14.58546648693107"
      },
      "geometry": {
        "type": "Point",
        "coordinates": [
          38.589581749479294,
          64.21337474325452
        ]
      }
    },
    {
      "type": "Feature",
      "properties": {
        "norad_id": 39030,
        "name": "GOKTURK 2",
        "group": "resource",
        "lat": 66.87917837252881,
        "lon": 166.58329917962044,
        "alt_km": 637.1790090553268,
        "timestamp": "2025-12-09T04:51:47.164459+00:00",
        "meta_object_name": "GOKTURK 2",
        "meta_object_id": "2012-073A",
        "meta_epoch": "2025-12-08T20:24:59.153760",
        "meta_mean_motion": 14.75282552,
        "meta_eccentricity": 9.06e-05,
        "meta_inclination": 97.6889,
        "meta_ra_of_asc_node": 184.6951,
        "meta_arg_of_pericenter": 96.57,
        "meta_mean_anomaly": 263.5613,
        "meta_ephemeris_type": 0,
        "meta_classification_type": "U",
        "meta_norad_cat_id": 39030,
        "meta_element_set_no": 999,
        "meta_rev_at_epoch": 69644,
        "meta_bstar": 0.00015484,
        "meta_mean_motion_dot": 1.001e-05,
        "meta_mean_motion_ddot": 0,
        "tle_line1": "1 39030U 12073A   25342.85068465  .00001001  00000+0  15484-3 0  9992",
        "tle_line2": "2 39030  97.6889 184.6951 0000906  96.5700 263.5613 14.75282552696446"
      },
      "geometry": {
        "type": "Point",
        "coordinates": [
          166.58329917962044,
          66.87917837252881
        ]
      }
    },
    {
      "type": "Feature",
      "properties": {
        "norad_id": 39084,
        "name": "LANDSAT 8",
        "group": "resource",
        "lat": -71.95394811590238,
        "lon": -154.96711350786947,
        "alt_km": 710.5923417543436,
        "timestamp": "2025-12-09T04:51:47.164470+00:00",
        "meta_object_name": "LANDSAT 8",
        "meta_object_id": "2013-008A",
        "meta_epoch": "2025-12-08T19:27:40.654944",
        "meta_mean_motion": 14.57108818,
        "meta_eccentricity": 0.0001124,
        "meta_inclination": 98.2076,
        "meta_ra_of_asc_node": 50.9423,
        "meta_arg_of_pericenter": 86.795,
        "meta_mean_anomaly": 273.3377,
        "meta_ephemeris_type": 0,
        "meta_classification_type": "U",
        "meta_norad_cat_id": 39084,
        "meta_element_set_no": 999,
        "meta_rev_at_epoch": 67017,
        "meta_bstar": 0.00020082,
        "meta_mean_motion_dot": 8.6e-06,
        "meta_mean_motion_ddot": 0,
        "tle_line1": "1 39084U 13008A   25342.81088721  .00000860  00000+0  20082-3 0  9995",
        "tle_line2": "2 39084  98.2076  50.9423 0001124  86.7950 273.3377 14.57108818670170"
      },
      "geometry": {
        "type": "Point",
        "coordinates": [
          -154.96711350786947,
          -71.95394811590238
        ]
      }
    },
    {
      "type": "Feature",
      "properties": {
        "norad_id": 39086,
        "name": "SARAL",
        "group": "resource",
        "lat": -9.178103416398017,
        "lon": -14.21385358164949,
        "alt_km": 786.0421914013159,
        "timestamp": "2025-12-09T04:51:47.164480+00:00",
        "meta_object_name": "SARAL",
        "meta_object_id": "2013-009A",
        "meta_epoch": "2025-12-08T19:36:10.683648",
        "meta_mean_motion": 14.32755226,
        "meta_eccentricity": 0.0002787,
        "meta_inclination": 98.5504,
        "meta_ra_of_asc_node": 166.7984,
        "meta_arg_of_pericenter": 116.1399,
        "meta_mean_anomaly": 244.0071,
        "meta_ephemeris_type": 0,
        "meta_classification_type": "U",
        "meta_norad_cat_id": 39086,
        "meta_element_set_no": 999,
        "meta_rev_at_epoch": 66834,
        "meta_bstar": 0.00011695,
        "meta_mean_motion_dot": 2.75e-06,
        "meta_mean_motion_ddot": 0,
        "tle_line1": "1 39086U 13009A   25342.81679032  .00000275  00000+0  11695-3 0  9999",
        "tle_line2": "2 39086  98.5504 166.7984 0002787 116.1399 244.0071 14.32755226668346"
      },
      "geometry": {
        "type": "Point",
        "coordinates": [
          -14.21385358164949,
          -9.178103416398017
        ]
      }
    },
    {
      "type": "Feature",
      "properties": {
        "norad_id": 39150,
        "name": "GAOFEN-1",
        "group": "resource",
        "lat": 49.0258481399494,
        "lon": -116.83642695308832,
        "alt_km": 624.3643666843427,
        "timestamp": "2025-12-09T04:51:47.164491+00:00",
        "meta_object_name": "GAOFEN-1",
        "meta_object_id": "2013-018A",
        "meta_epoch": "2025-12-08T20:08:34.993824",
        "meta_mean_motion": 14.76524429,
        "meta_eccentricity": 0.0017924,
        "meta_inclination": 97.933,
        "meta_ra_of_asc_node": 53.5675,
        "meta_arg_of_pericenter": 155.0714,
        "meta_mean_anomaly": 205.1366,
        "meta_ephemeris_type": 0,
        "meta_classification_type": "U",
        "meta_norad_cat_id": 39150,
        "meta_element_set_no": 999,
        "meta_rev_at_epoch": 68015,
        "meta_bstar": 0.00023675,
        "meta_mean_motion_dot": 1.603e-05,
        "meta_mean_motion_ddot": 0,
        "tle_line1": "1 39150U 13018A   25342.83929391  .00001603  00000+0  23675-3 0  9996",
        "tle_line2": "2 39150  97.9330  53.5675 0017924 155.0714 205.1366 14.76524429680155"
      },
      "geometry": {
        "type": "Point",
        "coordinates": [
          -116.83642695308832,
          49.0258481399494
        ]
      }
    }
  ]
}